start=new Date('2021-09-28T00:00:00.000Z').valueOf();
sats=[{"COUNTRY_CODE":"US","PERIOD":"95.592","ELEMENT_SET_NO":"999","OBJECT_ID":"2021-041AA","INCLINATION":"53.0538","RCS_SIZE":"LARGE","MEAN_ANOMALY":"307.6683","REV_AT_EPOCH":"2036","MEAN_MOTION_DDOT":"0.0000000000000","FILE":"3130990","CENTER_NAME":"EARTH","GP_ID":"185636625","PERIAPSIS":"546.286","CLASSIFICATION_TYPE":"U","APOAPSIS":"548.142","SITE":"AFETR","TLE_LINE1":"1 48577U 21041AA  21270.28891755  .00001142  00000-0  95547-4 0  9998","RA_OF_ASC_NODE":"223.8464","OBJECT_TYPE":"PAYLOAD","LAUNCH_DATE":"2021-05-15","ARG_OF_PERICENTER":"52.4428","MEAN_ELEMENT_THEORY":"SGP4","TLE_LINE2":"2 48577  53.0538 223.8464 0001340  52.4428 307.6683 15.06399747 20364","BSTAR":"0.00009554700000","EPOCH":"2021-09-27T06:56:02.476320","SEMIMAJOR_AXIS":"6925.349","ECCENTRICITY":"0.00013400","DECAY_DATE":null,"TIME_SYSTEM":"UTC","EPHEMERIS_TYPE":"0","OBJECT_NAME":"STARLINK-2231","MEAN_MOTION_DOT":"0.00001142","REF_FRAME":"TEME","NORAD_CAT_ID":"48577","MEAN_MOTION":"15.06399747"},{"DECAY_DATE":null,"ECCENTRICITY":"0.00016850","TIME_SYSTEM":"UTC","EPHEMERIS_TYPE":"0","OBJECT_NAME":"STARLINK-2232","MEAN_MOTION_DOT":"-0.00000228","REF_FRAME":"TEME","NORAD_CAT_ID":"48578","MEAN_MOTION":"15.06394294","LAUNCH_DATE":"2021-05-15","ARG_OF_PERICENTER":"60.8977","TLE_LINE2":"2 48578  53.0564 221.2257 0001685  60.8977 299.2181 15.06394294 20451","MEAN_ELEMENT_THEORY":"SGP4","BSTAR":"0.00000357780000","EPOCH":"2021-09-27T20:48:00.847008","SEMIMAJOR_AXIS":"6925.366","GP_ID":"185669317","CLASSIFICATION_TYPE":"U","PERIAPSIS":"546.064","APOAPSIS":"548.398","SITE":"AFETR","RA_OF_ASC_NODE":"221.2257","TLE_LINE1":"1 48578U 21041AB  21270.86667647 -.00000228  00000-0  35778-5 0  9990","OBJECT_TYPE":"PAYLOAD","PERIOD":"95.593","COUNTRY_CODE":"US","OBJECT_ID":"2021-041AB","ELEMENT_SET_NO":"999","INCLINATION":"53.0564","RCS_SIZE":"LARGE","MEAN_ANOMALY":"299.2181","REV_AT_EPOCH":"2045","MEAN_MOTION_DDOT":"0.0000000000000","FILE":"3131463","CENTER_NAME":"EARTH"},{"EPOCH":"2021-09-27T14:37:48.479232","SEMIMAJOR_AXIS":"6925.375","BSTAR":"0.00019851000000","TLE_LINE2":"2 48579  53.0547 222.3903 0001492  68.0116 292.1031 15.06391464 20412","MEAN_ELEMENT_THEORY":"SGP4","LAUNCH_DATE":"2021-05-15","ARG_OF_PERICENTER":"68.0116","REF_FRAME":"TEME","NORAD_CAT_ID":"48579","MEAN_MOTION":"15.06391464","MEAN_MOTION_DOT":"0.00002676","TIME_SYSTEM":"UTC","DECAY_DATE":null,"ECCENTRICITY":"0.00014920","EPHEMERIS_TYPE":"0","OBJECT_NAME":"STARLINK-2233","FILE":"3131463","CENTER_NAME":"EARTH","REV_AT_EPOCH":"2041","MEAN_ANOMALY":"292.1031","MEAN_MOTION_DDOT":"0.0000000000000","INCLINATION":"53.0547","RCS_SIZE":"LARGE","COUNTRY_CODE":"US","PERIOD":"95.593","OBJECT_ID":"2021-041AC","ELEMENT_SET_NO":"999","SITE":"AFETR","RA_OF_ASC_NODE":"222.3903","TLE_LINE1":"1 48579U 21041AC  21270.60958888  .00002676  00000-0  19851-3 0  9993","OBJECT_TYPE":"PAYLOAD","CLASSIFICATION_TYPE":"U","PERIAPSIS":"546.206","APOAPSIS":"548.273","GP_ID":"185669429"},{"ARG_OF_PERICENTER":"31.5054","LAUNCH_DATE":"2021-05-15","TLE_LINE2":"2 48580  53.0537 198.1650 0002313  31.5054 282.0835 15.42172177  3623","BSTAR":"0.00031607000000","MEAN_ELEMENT_THEORY":"SGP4","SEMIMAJOR_AXIS":"6817.837","EPOCH":"2021-09-28T00:00:02.000160","OBJECT_NAME":"STARLINK-2234","EPHEMERIS_TYPE":"0","ECCENTRICITY":"0.00023130","DECAY_DATE":null,"TIME_SYSTEM":"UTC","MEAN_MOTION_DOT":"0.00013373","NORAD_CAT_ID":"48580","MEAN_MOTION":"15.42172177","REF_FRAME":"TEME","ELEMENT_SET_NO":"999","OBJECT_ID":"2021-041AD","PERIOD":"93.375","COUNTRY_CODE":"US","RCS_SIZE":"LARGE","INCLINATION":"53.0537","MEAN_MOTION_DDOT":"0.0000000000000","REV_AT_EPOCH":"362","MEAN_ANOMALY":"282.0835","CENTER_NAME":"EARTH","FILE":"3131463","GP_ID":"185669538","APOAPSIS":"441.279","CLASSIFICATION_TYPE":"U","PERIAPSIS":"438.125","RA_OF_ASC_NODE":"198.1650","TLE_LINE1":"1 48580U 21041AD  21271.00002315  .00013373  00000-0  31607-3 0  9994","OBJECT_TYPE":"PAYLOAD","SITE":"AFETR"},{"PERIAPSIS":"438.311","CLASSIFICATION_TYPE":"U","APOAPSIS":"440.932","TLE_LINE1":"1 48581U 21041AE  21271.00002315 -.00045450  00000-0 -10396-2 0  9999","OBJECT_TYPE":"PAYLOAD","RA_OF_ASC_NODE":"200.2859","SITE":"AFETR","GP_ID":"185669753","MEAN_MOTION_DDOT":"0.0000000000000","MEAN_ANOMALY":"269.5237","REV_AT_EPOCH":"362","CENTER_NAME":"EARTH","FILE":"3131463","ELEMENT_SET_NO":"999","OBJECT_ID":"2021-041AE","COUNTRY_CODE":"US","PERIOD":"93.373","RCS_SIZE":"LARGE","INCLINATION":"53.0536","REF_FRAME":"TEME","NORAD_CAT_ID":"48581","MEAN_MOTION":"15.42199525","OBJECT_NAME":"STARLINK-2235","DECAY_DATE":null,"TIME_SYSTEM":"UTC","ECCENTRICITY":"0.00019220","EPHEMERIS_TYPE":"0","MEAN_MOTION_DOT":"-0.00045450","TLE_LINE2":"2 48581  53.0536 200.2859 0001922  40.3065 269.5237 15.42199525  3626","BSTAR":"-0.00103960000000","MEAN_ELEMENT_THEORY":"SGP4","SEMIMAJOR_AXIS":"6817.756","EPOCH":"2021-09-28T00:00:02.000160","ARG_OF_PERICENTER":"40.3065","LAUNCH_DATE":"2021-05-15"},{"CENTER_NAME":"EARTH","FILE":"3131463","MEAN_MOTION_DDOT":"0.0000000000000","REV_AT_EPOCH":"362","MEAN_ANOMALY":"282.9691","RCS_SIZE":"LARGE","INCLINATION":"53.0544","OBJECT_ID":"2021-041AF","ELEMENT_SET_NO":"999","COUNTRY_CODE":"US","PERIOD":"93.373","TLE_LINE1":"1 48582U 21041AF  21271.00002315 -.00041798  00000-0 -95503-3 0  9995","RA_OF_ASC_NODE":"198.8525","OBJECT_TYPE":"PAYLOAD","SITE":"AFETR","APOAPSIS":"441.095","CLASSIFICATION_TYPE":"U","PERIAPSIS":"438.181","GP_ID":"185669643","SEMIMAJOR_AXIS":"6817.773","EPOCH":"2021-09-28T00:00:02.000160","TLE_LINE2":"2 48582  53.0544 198.8525 0002137  32.1101 282.9691 15.42193860  3626","BSTAR":"-0.00095503000000","MEAN_ELEMENT_THEORY":"SGP4","ARG_OF_PERICENTER":"32.1101","LAUNCH_DATE":"2021-05-15","NORAD_CAT_ID":"48582","MEAN_MOTION":"15.42193860","REF_FRAME":"TEME","MEAN_MOTION_DOT":"-0.00041798","OBJECT_NAME":"STARLINK-2236","EPHEMERIS_TYPE":"0","TIME_SYSTEM":"UTC","DECAY_DATE":null,"ECCENTRICITY":"0.00021370"},{"NORAD_CAT_ID":"48583","MEAN_MOTION":"15.06398887","REF_FRAME":"TEME","EPHEMERIS_TYPE":"0","DECAY_DATE":null,"TIME_SYSTEM":"UTC","ECCENTRICITY":"0.00014360","OBJECT_NAME":"STARLINK-2237","MEAN_MOTION_DOT":"-0.00001422","TLE_LINE2":"2 48583  53.0565 231.2917 0001436  52.1512 307.9607 15.06398887 20312","MEAN_ELEMENT_THEORY":"SGP4","BSTAR":"-0.00007656800000","EPOCH":"2021-09-27T20:32:06.273024","SEMIMAJOR_AXIS":"6925.352","LAUNCH_DATE":"2021-05-15","ARG_OF_PERICENTER":"52.1512","APOAPSIS":"548.211","CLASSIFICATION_TYPE":"U","PERIAPSIS":"546.222","SITE":"AFETR","RA_OF_ASC_NODE":"231.2917","TLE_LINE1":"1 48583U 21041AG  21270.85562816 -.00001422  00000-0 -76568-4 0  9996","OBJECT_TYPE":"PAYLOAD","GP_ID":"185669106","REV_AT_EPOCH":"2031","MEAN_ANOMALY":"307.9607","MEAN_MOTION_DDOT":"0.0000000000000","FILE":"3131463","CENTER_NAME":"EARTH","PERIOD":"95.592","COUNTRY_CODE":"US","ELEMENT_SET_NO":"999","OBJECT_ID":"2021-041AG","INCLINATION":"53.0565","RCS_SIZE":"LARGE"},{"TLE_LINE1":"1 48584U 21041AH  21270.63079447 -.00000425  00000-0 -96463-5 0  9995","OBJECT_TYPE":"PAYLOAD","RA_OF_ASC_NODE":"232.2864","SITE":"AFETR","APOAPSIS":"548.201","PERIAPSIS":"546.263","CLASSIFICATION_TYPE":"U","GP_ID":"185669214","CENTER_NAME":"EARTH","FILE":"3131463","MEAN_MOTION_DDOT":"0.0000000000000","MEAN_ANOMALY":"306.1838","REV_AT_EPOCH":"2027","RCS_SIZE":"LARGE","INCLINATION":"53.0553","OBJECT_ID":"2021-041AH","ELEMENT_SET_NO":"999","PERIOD":"95.593","COUNTRY_CODE":"US","NORAD_CAT_ID":"48584","MEAN_MOTION":"15.06394003","REF_FRAME":"TEME","MEAN_MOTION_DOT":"-0.00000425","OBJECT_NAME":"STARLINK-2238","EPHEMERIS_TYPE":"0","DECAY_DATE":null,"TIME_SYSTEM":"UTC","ECCENTRICITY":"0.00013990","SEMIMAJOR_AXIS":"6925.367","EPOCH":"2021-09-27T15:08:20.642208","MEAN_ELEMENT_THEORY":"SGP4","TLE_LINE2":"2 48584  53.0553 232.2864 0001399  53.9280 306.1838 15.06394003 20279","BSTAR":"-0.00000964630000","ARG_OF_PERICENTER":"53.9280","LAUNCH_DATE":"2021-05-15"},{"NORAD_CAT_ID":"48585","MEAN_MOTION":"15.06407859","REF_FRAME":"TEME","MEAN_MOTION_DOT":"0.00002195","OBJECT_NAME":"STARLINK-2240","EPHEMERIS_TYPE":"0","DECAY_DATE":null,"ECCENTRICITY":"0.00013730","TIME_SYSTEM":"UTC","SEMIMAJOR_AXIS":"6925.324","EPOCH":"2021-09-27T07:26:33.356256","MEAN_ELEMENT_THEORY":"SGP4","TLE_LINE2":"2 48585  53.0551 233.7366 0001373  73.7949 286.3191 15.06407859 20225","BSTAR":"0.00016618000000","ARG_OF_PERICENTER":"73.7949","LAUNCH_DATE":"2021-05-15","RA_OF_ASC_NODE":"233.7366","TLE_LINE1":"1 48585U 21041AJ  21270.31010829  .00002195  00000-0  16618-3 0  9996","OBJECT_TYPE":"PAYLOAD","SITE":"AFETR","APOAPSIS":"548.140","CLASSIFICATION_TYPE":"U","PERIAPSIS":"546.239","GP_ID":"185636626","CENTER_NAME":"EARTH","FILE":"3130990","MEAN_MOTION_DDOT":"0.0000000000000","REV_AT_EPOCH":"2022","MEAN_ANOMALY":"286.3191","RCS_SIZE":"LARGE","INCLINATION":"53.0551","OBJECT_ID":"2021-041AJ","ELEMENT_SET_NO":"999","COUNTRY_CODE":"US","PERIOD":"95.592"},{"GP_ID":"185669318","APOAPSIS":"548.243","CLASSIFICATION_TYPE":"U","PERIAPSIS":"546.192","TLE_LINE1":"1 48586U 21041AK  21270.63447486 -.00000172  00000-0  73244-5 0  9999","RA_OF_ASC_NODE":"232.2803","OBJECT_TYPE":"PAYLOAD","SITE":"AFETR","ELEMENT_SET_NO":"999","OBJECT_ID":"2021-041AK","COUNTRY_CODE":"US","PERIOD":"95.592","RCS_SIZE":"LARGE","INCLINATION":"53.0560","MEAN_MOTION_DDOT":"0.0000000000000","REV_AT_EPOCH":"2027","MEAN_ANOMALY":"300.4513","CENTER_NAME":"EARTH","FILE":"3131463","OBJECT_NAME":"STARLINK-2241","EPHEMERIS_TYPE":"0","DECAY_DATE":null,"ECCENTRICITY":"0.00014810","TIME_SYSTEM":"UTC","MEAN_MOTION_DOT":"-0.00000172","NORAD_CAT_ID":"48586","MEAN_MOTION":"15.06398634","REF_FRAME":"TEME","ARG_OF_PERICENTER":"59.6622","LAUNCH_DATE":"2021-05-15","TLE_LINE2":"2 48586  53.0560 232.2803 0001481  59.6622 300.4513 15.06398634 20278","BSTAR":"0.00000732440000","MEAN_ELEMENT_THEORY":"SGP4","SEMIMAJOR_AXIS":"6925.353","EPOCH":"2021-09-27T15:13:38.627904"}];
